NAVSTAR 77 (USA 289)    
1 43873U 18109A   24166.34774125  .00000039  00000+0  00000+0 0  9996
2 43873  55.2966 121.1403 0028964 195.3919 343.8576  2.00556045 40375
